TIANLIAN 2-02           
1 50005U 21124A   25288.30527630 -.00000028  00000+0  00000+0 0  9990
2 50005   0.1656  93.4029 0004816 148.4787  63.1022  1.00271939 14163
TURKSAT 5B              
1 50212U 21126A   25290.70584380  .00000137  00000+0  00000+0 0  9994
2 50212   0.0761 338.2592 0002909 312.4423  31.8874  1.00271939 13868
INMARSAT 6-F1           
1 50319U 21128A   25290.50000947  .00000000  00000+0  00000+0 0  9993
2 50319   0.0197 211.0475 0000306 124.9241 314.0362  1.00269530 13828
SHIYAN-12 01 (SY-12 01) 
1 50321U 21129A   25288.73347051 -.00000369  00000+0  00000+0 0  9998
2 50321   3.0411  83.3118 0002875 179.4763 144.8745  1.00449179 14042
SHIYAN-12 02 (SY-12 02) 
1 50322U 21129B   25288.71907916 -.00000370  00000+0  00000+0 0  9991
2 50322   3.0404  83.3074 0002833 168.8813 151.5231  1.00106663 14041
TJS-9                   
1 50574U 21135A   25290.22522249 -.00000310  00000+0  00000+0 0  9992
2 50574   0.0579  67.1296 0002386 211.2570 325.8926  1.00267980 13992
USA 324                 
1 51280U 22006A   25284.20135219 -.00000043  00000+0  00000+0 0  9996
2 51280   0.1671  79.0127 0000506 109.9083 249.7259  1.00675419 13634
USA 325                 
1 51281U 22006B   25284.72430556 -.00000239  00000+0  00000+0 0  9993
2 51281   0.3000  88.0771 0010246  88.8148 188.8213  1.00531791 13634
GOES 18                 
1 51850U 22021A   25290.67031029  .00000087  00000+0  00000+0 0  9995
2 51850   0.0469  55.6153 0000668 217.6675 217.4586  1.00272246  4167
ZHONGXING-6D            
1 52255U 22038A   25289.58218235 -.00000366  00000+0  00000+0 0  9998
2 52255   0.0232 230.2280 0002710  14.6534 115.1067  1.00267732 12976
NILESAT 301             
1 52817U 22061A   25290.26794934 -.00000068  00000+0  00000+0 0  9999
2 52817   0.0519  20.9594 0002145 208.6388 245.9004  1.00272179 12305
CMS-02 (GSAT 24)        
1 52903U 22067A   25290.71390382 -.00000174  00000+0  00000+0 0  9998
2 52903   0.0301 252.6431 0003310   0.7640 113.0805  1.00272170 12171
MEASAT 3D               
1 52904U 22067B   25290.75702426 -.00000251  00000+0  00000+0 0  9995
2 52904   0.0400 327.1798 0002595 288.6373 134.7263  1.00273662 12210
SES-22                  
1 52933U 22071A   25290.66996361  .00000000  00000+0  00000+0 0  9996
2 52933   0.0150 216.9730 0000942 354.3329 277.2875  1.00268934  5097
WFOV (USA 332)          
1 52940U 22073A   25290.73731169 -.00000368  00000+0  00000+0 0  9995
2 52940   3.0848  81.6453 0001616  79.4200 250.1405  1.00270075 11931
TIANLIAN 2-03           
1 53100U 22078A   25289.89919308  .00000061  00000+0  00000+0 0  9996
2 53100   0.1014  17.9964 0002814 224.1179 117.8739  1.00272653 12111
SBIRS GEO-6 (USA 336)   
1 53355U 22092A   25290.22556916 -.00000309  00000+0  00000+0 0  9991
2 53355   3.6916 314.1137 0001904 260.8623  31.2138  1.00271260 11794
EUTELSAT KONNECT VHTS   
1 53765U 22110A   25289.91460777  .00000006  00000+0  00000+0 0  9993
2 53765   0.0565  96.6423 0002738  95.1864 165.8160  1.00272083  4382
ZHONGXING-1E            
1 53813U 22112A   25286.78377889 -.00000163  00000+0  00000+0 0  9997
2 53813   0.0631  67.0813 0004534 196.0617 123.0191  1.00270298 11371
SES-20                  
1 53960U 22123A   25290.46300263 -.00000111  00000+0  00000+0 0  9997
2 53960   0.0423  59.7401 0001296  52.9197 337.1560  1.00271032 11093
SES-21                  
1 53961U 22123B   25290.67152362  .00000060  00000+0  00000+0 0  9998
2 53961   0.0310  69.2311 0001061 130.6977 297.2684  1.00271306  4780
GALAXY 33 (G-33)        
1 54026U 22128A   25290.67109029  .00000070  00000+0  00000+0 0  9999
2 54026   0.0202 250.7743 0001699 311.1399 293.1156  1.00271645 11312
GALAXY 34 (G-34)        
1 54027U 22128B   25290.67195697  .00000050  00000+0  00000+0 0  9994
2 54027   0.0131 248.0618 0001471 315.9932 295.2927  1.00271246 11482
ANGOSAT 2               
1 54033U 22131A   25286.20667201  .00000124  00000+0  00000+0 0  9996
2 54033   0.0028 182.3357 0001735  90.6689 206.4368  1.00272301 10994
EUTELSAT HOTBIRD 13F    
1 54048U 22134A   25290.27193603  .00000076  00000+0  00000+0 0  9993
2 54048   0.0569 281.5760 0002193  76.3178 139.0282  1.00270680 10942
LDPE-2                  
1 54219U 22144A   25290.29030944 -.00000178  00000+0  00000+0 0  9998
2 54219   5.0560  65.4062 0001556 120.6446  50.1257  1.02361139  9388
EUTELSAT HOTBIRD 13G    
1 54225U 22146A   25290.27193603  .00000076  00000+0  00000+0 0  9993
2 54225   0.0493 235.6822 0001883 305.3858 315.8616  1.00270570  5036
ZHONGXING-19            
1 54230U 22148A   25289.23140772 -.00000093  00000+0  00000+0 0  9994
2 54230   0.0114 145.6647 0007608  86.4300  39.6179  1.00272553 10930
GALAXY 31 (G-31)        
1 54243U 22153A   25290.67351698  .00000004  00000+0  00000+0 0  9996
2 54243   0.0107 218.6595 0001621   5.9204 283.3259  1.00271716  4702
GALAXY 32 (G-32)        
1 54244U 22153B   25290.32263624  .00000000  00000+0  00000+0 0  9996
2 54244   0.0116 219.8186 0000965  68.6872 122.7137  1.00269605 10701
EUTELSAT 10B            
1 54259U 22157A   25290.69943043  .00000059  00000+0  00000+0 0  9990
2 54259   0.0606  92.7167 0001616  45.3387 150.1655  1.00270606 10595
GALAXY 35 (G-35)        
1 54741U 22170A   25290.25087591 -.00000173  00000+0  00000+0 0  9998
2 54741   0.0138 232.0166 0002052 337.0297 174.1791  1.00272651 10459
GALAXY 36 (G-36)        
1 54742U 22170B   25290.25174259 -.00000196  00000+0  00000+0 0  9992
2 54742   0.0141 159.7754 0001218   3.0066 224.8627  1.00272050 10330
METEOSAT-12 (MTG-I1)    
1 54743U 22170C   25290.26924934 -.00000017  00000+0  00000+0 0  9999
2 54743   0.6994  30.2610 0001363 144.3689 307.9635  1.00274069 10545
SHIJIAN-23 (SJ-23)      
1 55131U 23002A   25288.70318090  .00000081  00000+0  00000+0 0  9992
2 55131   3.0869  81.4156 0002652 148.9320  65.9195  1.00088655 10054
APSTAR-6E               
1 55239U 23005A   25286.94219898 -.00000331  00000+0  00000+0 0  9993
2 55239   0.0198 228.2015 0004321 359.4213 268.3345  1.00268551 16232
USA 342                 
1 55263U 23008A   25288.70422093  .00000124  00000+0  00000+0 0  9991
2 55263   0.0113 237.6198 0000709  12.1191  52.0743  1.00271446 10068
LDPE-3A                 
1 55264U 23008B   25290.20286238  .00000144  00000+0  00000+0 0  9991
2 55264   1.6514  84.1831 0000614 143.8812 255.6569  1.00559481  9385
ELEKTRO-L 4             
1 55506U 23016A   25289.46933536 -.00000071  00000+0  00000+0 0  9995
2 55506   0.0905  47.9664 0002632 184.6725 127.3531  1.00272314  9897
AMAZONAS NEXUS          
1 55508U 23017A   25290.32861626  .00000000  00000+0  00000+0 0  9996
2 55508   0.0154  50.3130 0001099 125.8850 267.1815  1.00267959  4604
ZHONGXING-26            
1 55686U 23023A   25286.94046564 -.00000367  00000+0  00000+0 0  9996
2 55686   0.0609  65.1919 0000845  97.3665 323.8426  1.00267862  9763
LUCH-5X (OLYMP-K 2)     
1 55841U 23031A   25288.71184762  .00000018  00000+0  00000+0 0  9990
2 55841   0.0285  92.6359 0001226 233.1672  16.9735  1.00271861  9487
GAOFEN-13 02            
1 55912U 23036A   25287.61989153 -.00000235  00000+0  00000+0 0  9991
2 55912   1.1504 331.8061 0003436 333.9837  88.9514  1.00267766  9637
SES-18                  
1 55970U 23038A   25290.24888258 -.00000112  00000+0  00000+0 0  9998
2 55970   0.0224 262.3922 0002707 337.3810 132.7511  1.00272228  9668
SES-19                  
1 55971U 23038B   25290.24264255  .00000077  00000+0  00000+0 0  9993
2 55971   0.0358 280.3768 0001645 285.2745 132.8227  1.00272232  9630
INTELSAT 40E (IS-40E)   
1 56174U 23052A   25289.96591468 -.00000186  00000+0  00000+0 0  9993
2 56174   0.0130 205.5013 0002438 350.1166  86.8392  1.00272149  9386
VIASAT-3                
1 56370U 23060A   25290.46577596 -.00000195  00000+0  00000+0 0  9993
2 56370   0.0211 265.0844 0000373 166.5023  33.4108  1.00269703  9008
ARCTURUS                
1 56371U 23060B   25290.33632964 -.00000177  00000+0  00000+0 0  9991
2 56371   2.1457  82.9770 0000265 189.0767 213.0324  1.00272478  9024
GS-1                    
1 56372U 23060C   25289.85454749 -.00000029  00000+0  00000+0 0  9996
2 56372   2.0945  82.6786 0002925 248.8091  69.0415  1.00300425  5096
BEIDOU-3 G4             
1 56564U 23066A   25290.22972917 -.00000124  00000+0  00000+0 0  9996
2 56564   0.9437 297.9403 0004818 221.1329 109.5527  1.00273477  8958
ARABSAT-7B (BADR-8)     
1 56757U 23075A   25290.63131009  .00000135  00000+0  00000+0 0  9995
2 56757   0.0749  28.5535 0001849 312.1958 298.9178  1.00272105  8685
NVS-01 (IRNSS-1J)       
1 56759U 23076A   25290.68549852 -.00000348  00000+0  00000+0 0  9999
2 56759   2.7605 253.4971 0007029 347.9478 161.3243  1.00278248  8689
NUSANTARA TIGA (SATRIA) 
1 57045U 23086A   25289.84558616 -.00000246  00000+0  00000+0 0  9990
2 57045   0.0478 347.7995 0003532 298.8004 189.4291  1.00271635  7321
H2SAT (HEINRICH HERTZ)  
1 57213U 23093A   25290.27349603  .00000050  00000+0  00000+0 0  9990
2 57213   0.0571 241.3824 0001467  45.7890 218.5045  0.99789098  8482
SYRACUSE 4B             
1 57214U 23093B   25290.26803601  .00000000  00000+0  00000+0 0  9998
2 57214   0.0205 211.4861 0000340  96.9804 167.5072  1.00272107  4534
JUPITER 3 (ECHOSTAR 24) 
1 57479U 23108A   25289.19504080 -.00000164  00000+0  00000+0 0  9999
2 57479   0.0126 229.4038 0001199 336.9797 153.6260  1.00272064  8200
GALAXY 37 (G-37)        
1 57493U 23112A   25290.24420256  .00000000  00000+0  00000+0 0  9998
2 57493   0.0116 189.3456 0002118  29.5506 128.0097  1.00269720  8106
LUDI TANCE-4 01A        
1 57624U 23120A   25284.78288976 -.00000197  00000+0  00000+0 0  9994
2 57624  15.2834 200.1201 0004651  61.8904 130.1725  1.00273147  8056
TJS-10                  
1 58204U 23169A   25288.74564519 -.00000010  00000+0  00000+0 0  9996
2 58204   1.9105  83.4158 0004943 147.4002 235.1516  1.00273080  7094
